{"type": "FeatureCollection", "features": [ {"type": "Feature", "properties": {"norad_id": 66530, "name": "STARLINK-35961", "group": "last-30-days", "lat": -30.907326995745336, "lon": 60.81990039190323, "alt_km": 353.6378560395442, "timestamp": "2025-12-04T19:33:58.448962+00:00", "meta": {"OBJECT_NAME": "STARLINK-35961", "OBJECT_ID": "2025-265Q", "EPOCH": "2025-12-04T08:00:01.999872", "MEAN_MOTION": 15.74430306, "ECCENTRICITY": 0.00012257, "INCLINATION": 42.9996, "RA_OF_ASC_NODE": 103.713, "ARG_OF_PERICENTER": 279.3818, "MEAN_ANOMALY": 178.7346, "EPHEMERIS_TYPE": 0, "CLASSIFICATION_TYPE": "U", "NORAD_CAT_ID": 66530, "ELEMENT_SET_NO": 999, "REV_AT_EPOCH": 364, "BSTAR": -0.013982092, "MEAN_MOTION_DOT": -0.01828771, "MEAN_MOTION_DDOT": 0}, "tle": {"line1": "1 66530U 25265Q   25338.33335648 -.01828771  00000+0 -13982-1 0  9995", "line2": "2 66530  42.9996 103.7130 0001225 279.3818 178.7346 15.74430306  3646"}}, "geometry": {"type": "Point", "coordinates": [60.81990039190323, -30.907326995745336]}}, {"type": "Feature", "properties": {"norad_id": 66531, "name": "STARLINK-35960", "group": "last-30-days", "lat": -29.890672283274476, "lon": 62.70318813917022, "alt_km": 353.6715321213069, "timestamp": "2025-12-04T19:33:58.448971+00:00", "meta": {"OBJECT_NAME": "STARLINK-35960", "OBJECT_ID": "2025-265R", "EPOCH": "2025-12-04T08:00:01.999872", "MEAN_MOTION": 15.74424976, "ECCENTRICITY": 0.00013338, "INCLINATION": 42.9997, "RA_OF_ASC_NODE": 103.708, "ARG_OF_PERICENTER": 268.5616, "MEAN_ANOMALY": 191.4681, "EPHEMERIS_TYPE": 0, "CLASSIFICATION_TYPE": "U", "NORAD_CAT_ID": 66531, "ELEMENT_SET_NO": 999, "REV_AT_EPOCH": 364, "BSTAR": -0.013872111, "MEAN_MOTION_DOT": -0.0181594, "MEAN_MOTION_DDOT": 0}, "tle": {"line1": "1 66531U 25265R   25338.33335648 -.01815940  00000+0 -13872-1 0  9998", "line2": "2 66531  42.9997 103.7080 0001333 268.5616 191.4681 15.74424976  3648"}}, "geometry": {"type": "Point", "coordinates": [62.70318813917022, -29.890672283274476]}}, {"type": "Feature", "properties": {"norad_id": 66532, "name": "STARLINK-35914", "group": "last-30-days", "lat": -28.84992671787493, "lon": 64.54394529513911, "alt_km": 353.7835471214785, "timestamp": "2025-12-04T19:33:58.448981+00:00", "meta": {"OBJECT_NAME": "STARLINK-35914", "OBJECT_ID": "2025-265S", "EPOCH": "2025-12-04T08:00:01.999872", "MEAN_MOTION": 15.74426722, "ECCENTRICITY": 0.00011816, "INCLINATION": 42.9995, "RA_OF_ASC_NODE": 103.7035, "ARG_OF_PERICENTER": 261.2056, "MEAN_ANOMALY": 200.7169, "EPHEMERIS_TYPE": 0, "CLASSIFICATION_TYPE": "U", "NORAD_CAT_ID": 66532, "ELEMENT_SET_NO": 999, "REV_AT_EPOCH": 364, "BSTAR": -0.013696499, "MEAN_MOTION_DOT": -0.01795848, "MEAN_MOTION_DDOT": 0}, "tle": {"line1": "1 66532U 25265S   25338.33335648 -.01795848  00000+0 -13696-1 0  9997", "line2": "2 66532  42.9995 103.7035 0001181 261.2056 200.7169 15.74426722  3642"}}, "geometry": {"type": "Point", "coordinates": [64.54394529513911, -28.84992671787493]}}, {"type": "Feature", "properties": {"norad_id": 66533, "name": "STARLINK-35707", "group": "last-30-days", "lat": -27.78620959693466, "lon": 66.34503527317837, "alt_km": 353.56014038067497, "timestamp": "2025-12-04T19:33:58.448990+00:00", "meta": {"OBJECT_NAME": "STARLINK-35707", "OBJECT_ID": "2025-265T", "EPOCH": "2025-12-04T08:00:01.999872", "MEAN_MOTION": 15.7443292, "ECCENTRICITY": 0.00011061, "INCLINATION": 42.9995, "RA_OF_ASC_NODE": 103.6987, "ARG_OF_PERICENTER": 273.7285, "MEAN_ANOMALY": 190.1077, "EPHEMERIS_TYPE": 0, "CLASSIFICATION_TYPE": "U", "NORAD_CAT_ID": 66533, "ELEMENT_SET_NO": 999, "REV_AT_EPOCH": 364, "BSTAR": -0.013746726, "MEAN_MOTION_DOT": -0.01801971, "MEAN_MOTION_DDOT": 0}, "tle": {"line1": "1 66533U 25265T   25338.33335648 -.01801971  00000+0 -13747-1 0  9990", "line2": "2 66533  42.9995 103.6987 0001106 273.7285 190.1077 15.74432920  3644"}}, "geometry": {"type": "Point", "coordinates": [66.34503527317837, -27.78620959693466]}}, {"type": "Feature", "properties": {"norad_id": 66534, "name": "STARLINK-35976", "group": "last-30-days", "lat": -26.69830108120601, "lon": 68.11367962265123, "alt_km": 353.1207594349544, "timestamp": "2025-12-04T19:33:58.448999+00:00", "meta": {"OBJECT_NAME": "STARLINK-35976", "OBJECT_ID": "2025-265U", "EPOCH": "2025-12-04T08:00:01.999872", "MEAN_MOTION": 15.74401943, "ECCENTRICITY": 0.00016107, "INCLINATION": 42.9999, "RA_OF_ASC_NODE": 103.6943, "ARG_OF_PERICENTER": 281.9314, "MEAN_ANOMALY": 183.861, "EPHEMERIS_TYPE": 0, "CLASSIFICATION_TYPE": "U", "NORAD_CAT_ID": 66534, "ELEMENT_SET_NO": 999, "REV_AT_EPOCH": 364, "BSTAR": -0.013648278, "MEAN_MOTION_DOT": -0.01788954, "MEAN_MOTION_DDOT": 0}, "tle": {"line1": "1 66534U 25265U   25338.33335648 -.01788954  00000+0 -13648-1 0  9996", "line2": "2 66534  42.9999 103.6943 0001610 281.9314 183.8610 15.74401943  3648"}}, "geometry": {"type": "Point", "coordinates": [68.11367962265123, -26.69830108120601]}}, {"type": "Feature", "properties": {"norad_id": 66535, "name": "STARLINK-35514", "group": "last-30-days", "lat": -25.589094382780377, "lon": 69.84666453955947, "alt_km": 352.995194948081, "timestamp": "2025-12-04T19:33:58.449009+00:00", "meta": {"OBJECT_NAME": "STARLINK-35514", "OBJECT_ID": "2025-265V", "EPOCH": "2025-12-04T08:00:01.999872", "MEAN_MOTION": 15.74410291, "ECCENTRICITY": 0.00015319, "INCLINATION": 42.9998, "RA_OF_ASC_NODE": 103.6894, "ARG_OF_PERICENTER": 285.7686, "MEAN_ANOMALY": 181.9153, "EPHEMERIS_TYPE": 0, "CLASSIFICATION_TYPE": "U", "NORAD_CAT_ID": 66535, "ELEMENT_SET_NO": 999, "REV_AT_EPOCH": 364, "BSTAR": -0.013547188, "MEAN_MOTION_DOT": -0.01777856, "MEAN_MOTION_DDOT": 0}, "tle": {"line1": "1 66535U 25265V   25338.33335648 -.01777856  00000+0 -13547-1 0  9994", "line2": "2 66535  42.9998 103.6894 0001531 285.7686 181.9153 15.74410291  3646"}}, "geometry": {"type": "Point", "coordinates": [69.84666453955947, -25.589094382780377]}}, {"type": "Feature", "properties": {"norad_id": 66536, "name": "STARLINK-35640", "group": "last-30-days", "lat": -24.45920581679787, "lon": 71.54857364094862, "alt_km": 353.46027616706306, "timestamp": "2025-12-04T19:33:58.449018+00:00", "meta": {"OBJECT_NAME": "STARLINK-35640", "OBJECT_ID": "2025-265W", "EPOCH": "2025-12-04T08:00:01.999872", "MEAN_MOTION": 15.74423536, "ECCENTRICITY": 8.567e-05, "INCLINATION": 42.9997, "RA_OF_ASC_NODE": 103.6848, "ARG_OF_PERICENTER": 261.6445, "MEAN_ANOMALY": 207.9491, "EPHEMERIS_TYPE": 0, "CLASSIFICATION_TYPE": "U", "NORAD_CAT_ID": 66536, "ELEMENT_SET_NO": 999, "REV_AT_EPOCH": 362, "BSTAR": -0.013667294, "MEAN_MOTION_DOT": -0.01792032, "MEAN_MOTION_DDOT": 0}, "tle": {"line1": "1 66536U 25265W   25338.33335648 -.01792032  00000+0 -13667-1 0  9991", "line2": "2 66536  42.9997 103.6848 0000856 261.6445 207.9491 15.74423536  3628"}}, "geometry": {"type": "Point", "coordinates": [71.54857364094862, -24.45920581679787]}}, {"type": "Feature", "properties": {"norad_id": 66537, "name": "STARLINK-35582", "group": "last-30-days", "lat": -23.311341151291654, "lon": 73.21861315693961, "alt_km": 353.2210481517677, "timestamp": "2025-12-04T19:33:58.449026+00:00", "meta": {"OBJECT_NAME": "STARLINK-35582", "OBJECT_ID": "2025-265X", "EPOCH": "2025-12-04T08:00:01.999872", "MEAN_MOTION": 15.74447423, "ECCENTRICITY": 0.00010599, "INCLINATION": 43, "RA_OF_ASC_NODE": 103.6797, "ARG_OF_PERICENTER": 282.2077, "MEAN_ANOMALY": 189.2841, "EPHEMERIS_TYPE": 0, "CLASSIFICATION_TYPE": "U", "NORAD_CAT_ID": 66537, "ELEMENT_SET_NO": 999, "REV_AT_EPOCH": 364, "BSTAR": -0.013856745, "MEAN_MOTION_DOT": -0.01815528, "MEAN_MOTION_DDOT": 0}, "tle": {"line1": "1 66537U 25265X   25338.33335648 -.01815528  00000+0 -13857-1 0  9999", "line2": "2 66537  43.0000 103.6797 0001059 282.2077 189.2841 15.74447423  3649"}}, "geometry": {"type": "Point", "coordinates": [73.21861315693961, -23.311341151291654]}}, {"type": "Feature", "properties": {"norad_id": 66538, "name": "STARLINK-35577", "group": "last-30-days", "lat": -22.14157373114232, "lon": 74.86556044701548, "alt_km": 353.1500092647548, "timestamp": "2025-12-04T19:33:58.449035+00:00", "meta": {"OBJECT_NAME": "STARLINK-35577", "OBJECT_ID": "2025-265Y", "EPOCH": "2025-12-04T08:00:01.999872", "MEAN_MOTION": 15.74410278, "ECCENTRICITY": 0.0001187, "INCLINATION": 42.9999, "RA_OF_ASC_NODE": 103.6746, "ARG_OF_PERICENTER": 277.1586, "MEAN_ANOMALY": 196.2811, "EPHEMERIS_TYPE": 0, "CLASSIFICATION_TYPE": "U", "NORAD_CAT_ID": 66538, "ELEMENT_SET_NO": 999, "REV_AT_EPOCH": 364, "BSTAR": -0.013570248, "MEAN_MOTION_DOT": -0.01780235, "MEAN_MOTION_DDOT": 0}, "tle": {"line1": "1 66538U 25265Y   25338.33335648 -.01780235  00000+0 -13570-1 0  9998", "line2": "2 66538  42.9999 103.6746 0001187 277.1586 196.2811 15.74410278  3642"}}, "geometry": {"type": "Point", "coordinates": [74.86556044701548, -22.14157373114232]}}, {"type": "Feature", "properties": {"norad_id": 66539, "name": "STARLINK-35697", "group": "last-30-days", "lat": -20.959144119115027, "lon": 76.48022128368284, "alt_km": 353.4583301334096, "timestamp": "2025-12-04T19:33:58.449044+00:00", "meta": {"OBJECT_NAME": "STARLINK-35697", "OBJECT_ID": "2025-265Z", "EPOCH": "2025-12-04T08:00:01.999872", "MEAN_MOTION": 15.74428086, "ECCENTRICITY": 0.00010147, "INCLINATION": 43, "RA_OF_ASC_NODE": 103.6695, "ARG_OF_PERICENTER": 261.7996, "MEAN_ANOMALY": 213.5416, "EPHEMERIS_TYPE": 0, "CLASSIFICATION_TYPE": "U", "NORAD_CAT_ID": 66539, "ELEMENT_SET_NO": 999, "REV_AT_EPOCH": 364, "BSTAR": -0.013706752, "MEAN_MOTION_DOT": -0.01796987, "MEAN_MOTION_DDOT": 0}, "tle": {"line1": "1 66539U 25265Z   25338.33335648 -.01796987  00000+0 -13707-1 0  9992", "line2": "2 66539  43.0000 103.6695 0001014 261.7996 213.5416 15.74428086  3644"}}, "geometry": {"type": "Point", "coordinates": [76.48022128368284, -20.959144119115027]}}]}